CUBEBUG-2 (LO-74)       
1 39440U 13066AA  26164.64686806  .00004494  00000+0  41592-3 0  9993
2 39440  97.8902 113.6100 0058667  40.4567 320.0992 14.93734401676467
FUNCUBE-1 (AO-73)       
1 39444U 13066AE  26164.47687333  .00007231  00000+0  44943-3 0  9999
2 39444  97.8265 135.8450 0035349 214.0171 145.8791 15.09446504679105
UWE-3                   
1 39446U 13066AG  26164.40572606  .00004335  00000+0  37334-3 0  9998
2 39446  97.8688 120.4540 0048166 333.7521  26.1260 14.96995919677019
UNISAT-6                
1 40012U 14033C   26164.43537822  .00003181  00000+0  34387-3 0  9991
2 40012  97.7869 317.2136 0046357  81.3465 279.2999 14.88227900645609
DUCHIFAT-1              
1 40021U 14033M   26164.63124916  .00106515  00000+0  11218-2 0  9991
2 40021  98.0475 223.2941 0003579 120.5679 239.5931 15.63921102655197
QB50P1                  
1 40025U 14033R   26164.59108358  .00008544  00000+0  42101-3 0  9991
2 40025  98.0958 175.4846 0007505 229.5673 130.4905 15.18209661652484
LILACSAT-2              
1 40908U 15049K   26164.66023912  .00017778  00000+0  30385-3 0  9999
2 40908  97.4650 201.3678 0005330 262.0544  98.0103 15.51337480595204
FOX-1A (AO-85)          
1 40967U 15058D   26164.59636305  .00002482  00000+0  22848-3 0  9993
2 40967  64.7761 290.1424 0130272  57.9472 303.4214 14.90954090113036
CAS-2T & KS-1Q          
1 41847U 16066G   26164.63903262  .00001668  00000+0  24080-3 0  9990
2 41847  98.3821 240.4159 0342689 140.2080 222.4792 14.44683674504283
RADFXSAT (FOX-1B)       
1 43017U 17073E   26164.56984625  .00009212  00000+0  40226-3 0  9997
2 43017  97.4712  31.8592 0150140 341.8088  17.7804 15.12665401464842
DIWATA-2B               
1 43678U 18084H   26164.63540513  .00002510  00000+0  20450-3 0  9996
2 43678  98.1179   0.6898 0012283 181.5737 178.5449 15.00436708415680
ES'HAIL 2               
1 43700U 18090A   26164.62447818  .00000155  00000+0  00000+0 0  9990
2 43700   0.0014  28.1046 0001509  94.9324  29.5140  1.00268778 27647
FOX-1CLIFF (AO-95)      
1 43770U 18099N   26164.14505075  .00010687  00000+0  41004-3 0  9997
2 43770  97.4395 224.4060 0008409  12.6677 347.4772 15.26630573412603
ITASAT                  
1 43786U 18099AE  26164.39864699  .00006652  00000+0  32032-3 0  9999
2 43786  97.4035 215.9856 0012520  13.7226 346.4347 15.19012840412330
JY1SAT (JO-97)          
1 43803U 18099AX  26164.63760191  .00017370  00000+0  53730-3 0  9995
2 43803  97.4136 227.4593 0004186 279.7788  80.2982 15.33549677413084
UWE-4                   
1 43880U 18111E   26164.33167095  .00033273  00000+0  68386-3 0  9999
2 43880  97.5857  92.5457 0006210 359.4619   0.6622 15.45902546410185
TIANYAN 01              
1 44881U 19093C   26164.61180369  .00000745  00000+0  90096-4 0  9993
2 44881  97.7535 236.9309 0015012  97.6360 262.6561 14.86512864350882
RS-44 & BREEZE-KM R/B   
1 44909U 19096E   26164.56520805  .00000028  00000+0  63264-4 0  9995
2 44909  82.5217 342.1122 0218027 152.6104 208.6693 12.79748800301887
SALSAT                  
1 46495U 20068K   26164.61334546  .00008137  00000+0  28494-3 0  9993
2 46495  97.8845 167.4603 0008310 323.2809  36.7860 15.29752133314812
XW-3 (CAS-9)            
1 50466U 21131B   26164.58364850  .00000347  00000+0  12083-3 0  9997
2 50466  98.4979 256.9926 0005311 104.5655 255.6123 14.41353968234595
GREENCUBE (IO-117)      
1 53109U 22080E   26152.46502029 -.00000003  00000+0  00000+0 0  9996
2 53109  70.1435 303.7143 0008869 293.3663  66.6064  6.42583280 91055
UMKA 1 (RS40S)          
1 57172U 23091G   26164.60668289  .00006252  00000+0  28621-3 0  9997
2 57172  97.5057 223.3173 0014122 128.7719 231.4781 15.20779695163460
CUBESX-HSE 3 (RS42S)    
1 57178U 23091N   26164.51416447  .00013645  00000+0  45508-3 0  9997
2 57178  97.5101 230.0548 0012117 106.0262 254.2314 15.31128207163869
MONITOR-3 (RS58S)       
1 57180U 23091Q   26164.59606763  .00011528  00000+0  42645-3 0  9997
2 57180  97.5091 228.0155 0013098 111.8837 248.3796 15.27775096163746
MONITOR-4 (RS57S)       
1 57182U 23091S   26164.64081750  .00010252  00000+0  37860-3 0  9994
2 57182  97.5086 228.0318 0013124 112.0876 248.1758 15.27862918163756
MONITOR-2 (RS39S)       
1 57184U 23091U   26164.62345271  .00005263  00000+0  25517-3 0  9997
2 57184  97.5079 222.9291 0012637 121.9128 238.3338 15.18880414163419
SVYATOBOR 1 (RS60S)     
1 57187U 23091X   26164.58532777  .00009858  00000+0  37908-3 0  9995
2 57187  97.5097 228.3822 0010911 105.2088 255.0358 15.26558539163760
VIZARD-METEO (RS38S)    
1 57189U 23091Z   26164.56451641  .00017135  00000+0  49141-3 0  9994
2 57189  97.5100 233.9768 0008473  88.4091 271.8123 15.35918208164135
POLYTECH-UNIVERSE 3 (R*)
1 57191U 23091AB  26164.58525513  .00005595  00000+0  26910-3 0  9995
2 57191  97.5054 222.3957 0016668 138.2653 221.9856 15.19080738163409
UTMN 2 (RS27S)          
1 57203U 23091AP  26164.59907818  .00013819  00000+0  44936-3 0  9998
2 57203  97.5096 231.7701 0009428  94.5172 265.7147 15.31970268163999
