OBJECT_NAME,OBJECT_ID,EPOCH,MEAN_MOTION,ECCENTRICITY,INCLINATION,RA_OF_ASC_NODE,ARG_OF_PERICENTER,MEAN_ANOMALY,EPHEMERIS_TYPE,CLASSIFICATION_TYPE,NORAD_CAT_ID,ELEMENT_SET_NO,REV_AT_EPOCH,BSTAR,MEAN_MOTION_DOT,MEAN_MOTION_DDOT
CUBEBUG-2 (LO-74),2013-066AA,2026-06-13T15:31:29.400384,14.93734401,.0058667,97.8902,113.6100,40.4567,320.0992,0,U,39440,999,67646,.41592086E-3,.4494E-4,0
FUNCUBE-1 (AO-73),2013-066AE,2026-06-13T11:26:41.855712,15.09446504,.00353491,97.8265,135.8450,214.0171,145.8791,0,U,39444,999,67910,.44943483E-3,.7231E-4,0
UWE-3,2013-066AG,2026-06-13T09:44:14.731584,14.96995919,.00481668,97.8688,120.4540,333.7521,26.1260,0,U,39446,999,67701,.37334213E-3,.4335E-4,0
UNISAT-6,2014-033C,2026-06-13T10:26:56.678208,14.88227900,.00463579,97.7869,317.2136,81.3465,279.2999,0,U,40012,999,64560,.34386577E-3,.3181E-4,0
DUCHIFAT-1,2014-033M,2026-06-13T15:08:59.927424,15.63921102,.00035795,98.0475,223.2941,120.5679,239.5931,0,U,40021,999,65519,.11217791E-2,.106515E-2,0
QB50P1,2014-033R,2026-06-13T14:11:09.621312,15.18209661,.00075051,98.0958,175.4846,229.5673,130.4905,0,U,40025,999,65248,.42101288E-3,.8544E-4,0
LILACSAT-2,2015-049K,2026-06-13T15:50:44.659968,15.51337480,.00053303,97.4650,201.3678,262.0544,98.0103,0,U,40908,999,59520,.30384838E-3,.17778E-3,0
FOX-1A (AO-85),2015-058D,2026-06-13T14:18:45.767520,14.90954090,.01302721,64.7761,290.1424,57.9472,303.4214,0,U,40967,999,11303,.2284789E-3,.2482E-4,0
CAS-2T & KS-1Q,2016-066G,2026-06-13T15:20:12.418368,14.44683674,.03426896,98.3821,240.4159,140.2080,222.4792,0,U,41847,999,50428,.24079565E-3,.1668E-4,0
RADFXSAT (FOX-1B),2017-073E,2026-06-13T13:40:34.716000,15.12665401,.01501403,97.4712,31.8592,341.8088,17.7804,0,U,43017,999,46484,.40225943E-3,.9212E-4,0
DIWATA-2B,2018-084H,2026-06-13T15:14:59.003232,15.00436708,.00122835,98.1179,0.6898,181.5737,178.5449,0,U,43678,999,41568,.20450415E-3,.251E-4,0
ES'HAIL 2,2018-090A,2026-06-13T14:59:14.914752,1.00268778,.00015098,0.0014,28.1046,94.9324,29.5140,0,U,43700,999,2764,0,.155E-5,0
FOX-1CLIFF (AO-95),2018-099N,2026-06-13T03:28:52.384800,15.26630573,.00084098,97.4395,224.4060,12.6677,347.4772,0,U,43770,999,41260,.41003729E-3,.10687E-3,0
ITASAT,2018-099AE,2026-06-13T09:34:03.099936,15.19012840,.00125202,97.4035,215.9856,13.7226,346.4347,0,U,43786,999,41233,.3203202E-3,.6652E-4,0
JY1SAT (JO-97),2018-099AX,2026-06-13T15:18:08.805024,15.33549677,.00041861,97.4136,227.4593,279.7788,80.2982,0,U,43803,999,41308,.53730046E-3,.1737E-3,0
UWE-4,2018-111E,2026-06-13T07:57:36.370080,15.45902546,.00062102,97.5857,92.5457,359.4619,0.6622,0,U,43880,999,41018,.68386434E-3,.33273E-3,0
TIANYAN 01,2019-093C,2026-06-13T14:40:59.838816,14.86512864,.00150128,97.7535,236.9309,97.6360,262.6561,0,U,44881,999,35088,.90096082E-4,.745E-5,0
RS-44 & BREEZE-KM R/B,2019-096E,2026-06-13T13:33:53.975520,12.79748800,.02180272,82.5217,342.1122,152.6104,208.6693,0,U,44909,999,30188,.63264214E-4,.28E-6,0
SALSAT,2020-068K,2026-06-13T14:43:13.047744,15.29752133,.00083104,97.8845,167.4603,323.2809,36.7860,0,U,46495,999,31481,.28494451E-3,.8137E-4,0
XW-3 (CAS-9),2021-131B,2026-06-13T14:00:27.230400,14.41353968,.00053114,98.4979,256.9926,104.5655,255.6123,0,U,50466,999,23459,.12083418E-3,.347E-5,0
GREENCUBE (IO-117),2022-080E,2026-06-01T11:09:37.753056,6.42583280,.00088692,70.1435,303.7143,293.3663,66.6064,0,U,53109,999,9105,0,-.3E-7,0
UMKA 1 (RS40S),2023-091G,2026-06-13T14:33:37.401696,15.20779695,.00141224,97.5057,223.3173,128.7719,231.4781,0,U,57172,999,16346,.28620842E-3,.6252E-4,0
CUBESX-HSE 3 (RS42S),2023-091N,2026-06-13T12:20:23.810208,15.31128207,.0012117,97.5101,230.0548,106.0262,254.2314,0,U,57178,999,16386,.45508474E-3,.13645E-3,0
MONITOR-3 (RS58S),2023-091Q,2026-06-13T14:18:20.243232,15.27775096,.00130989,97.5091,228.0155,111.8837,248.3796,0,U,57180,999,16374,.42645356E-3,.11528E-3,0
MONITOR-4 (RS57S),2023-091S,2026-06-13T15:22:46.632000,15.27862918,.00131249,97.5086,228.0318,112.0876,248.1758,0,U,57182,999,16375,.37859814E-3,.10252E-3,0
MONITOR-2 (RS39S),2023-091U,2026-06-13T14:57:46.314144,15.18880414,.00126371,97.5079,222.9291,121.9128,238.3338,0,U,57184,999,16341,.25516743E-3,.5263E-4,0
SVYATOBOR 1 (RS60S),2023-091X,2026-06-13T14:02:52.319328,15.26558539,.00109113,97.5097,228.3822,105.2088,255.0358,0,U,57187,999,16376,.37907881E-3,.9858E-4,0
VIZARD-METEO (RS38S),2023-091Z,2026-06-13T13:32:54.217824,15.35918208,.00084732,97.5100,233.9768,88.4091,271.8123,0,U,57189,999,16413,.49140996E-3,.17135E-3,0
POLYTECH-UNIVERSE 3 (RS46S),2023-091AB,2026-06-13T14:02:46.043232,15.19080738,.00166688,97.5054,222.3957,138.2653,221.9856,0,U,57191,999,16340,.2690958E-3,.5595E-4,0
UTMN 2 (RS27S),2023-091AP,2026-06-13T14:22:40.354752,15.31970268,.00094287,97.5096,231.7701,94.5172,265.7147,0,U,57203,999,16399,.44936141E-3,.13819E-3,0
